start=new Date('2022-03-31T00:00:00.000Z').valueOf();
sats=[{"MEAN_MOTION_DDOT":"0.0000000000000","EPOCH":"2022-03-30T06:52:24.758688","INCLINATION":"53.0546","REF_FRAME":"TEME","NORAD_CAT_ID":"47397","GP_ID":"200071761","OBJECT_ID":"2021-005BA","SEMIMAJOR_AXIS":"6925.359","MEAN_MOTION_DOT":"-0.00000521","PERIAPSIS":"545.704","FILE":"3380779","DECAY_DATE":null,"BSTAR":"-0.00001607300000","ELEMENT_SET_NO":"999","SITE":"AFETR","REV_AT_EPOCH":"6594","TLE_LINE1":"1 47397U 21005BA  22089.28639767 -.00000521  00000-0 -16073-4 0  9998","LAUNCH_DATE":"2021-01-20","PERIOD":"95.592","ECCENTRICITY":"0.00021950","TIME_SYSTEM":"UTC","ARG_OF_PERICENTER":"51.8487","CLASSIFICATION_TYPE":"U","MEAN_MOTION":"15.06396516","CENTER_NAME":"EARTH","MEAN_ANOMALY":"308.2700","COUNTRY_CODE":"US","OBJECT_TYPE":"PAYLOAD","APOAPSIS":"548.744","RA_OF_ASC_NODE":"47.8347","RCS_SIZE":"LARGE","EPHEMERIS_TYPE":"0","TLE_LINE2":"2 47397  53.0546  47.8347 0002195  51.8487 308.2700 15.06396516 65944","OBJECT_NAME":"STARLINK-2119","MEAN_ELEMENT_THEORY":"SGP4"},{"MEAN_ANOMALY":"298.2178","COUNTRY_CODE":"US","MEAN_MOTION":"15.06397183","TIME_SYSTEM":"UTC","ECCENTRICITY":"0.00015340","ARG_OF_PERICENTER":"61.8966","CLASSIFICATION_TYPE":"U","CENTER_NAME":"EARTH","EPHEMERIS_TYPE":"0","RCS_SIZE":"LARGE","MEAN_ELEMENT_THEORY":"SGP4","TLE_LINE2":"2 47398  53.0579  16.7643 0001534  61.8966 298.2178 15.06397183 67001","OBJECT_NAME":"STARLINK-2120","OBJECT_TYPE":"PAYLOAD","APOAPSIS":"548.285","RA_OF_ASC_NODE":"16.7643","GP_ID":"200035775","INCLINATION":"53.0579","REF_FRAME":"TEME","MEAN_MOTION_DDOT":"0.0000000000000","EPOCH":"2022-03-30T12:36:05.238432","NORAD_CAT_ID":"47398","TLE_LINE1":"1 47398U 21005BB  22089.52506063 -.00000639  00000-0 -24007-4 0  9994","ELEMENT_SET_NO":"999","SITE":"AFETR","REV_AT_EPOCH":"6700","PERIOD":"95.592","LAUNCH_DATE":"2021-01-20","MEAN_MOTION_DOT":"-0.00000639","OBJECT_ID":"2021-005BB","SEMIMAJOR_AXIS":"6925.357","BSTAR":"-0.00002400700000","PERIAPSIS":"546.160","FILE":"3380072","DECAY_DATE":null},{"GP_ID":"200097372","NORAD_CAT_ID":"47399","INCLINATION":"53.0582","REF_FRAME":"TEME","MEAN_MOTION_DDOT":"0.0000000000000","EPOCH":"2022-03-30T17:41:13.619616","PERIOD":"95.591","LAUNCH_DATE":"2021-01-20","TLE_LINE1":"1 47399U 21005BC  22089.73696319  .00002570  00000-0  19125-3 0  9990","ELEMENT_SET_NO":"999","REV_AT_EPOCH":"6628","SITE":"AFETR","BSTAR":"0.00019125000000","PERIAPSIS":"545.970","FILE":"3380787","DECAY_DATE":null,"MEAN_MOTION_DOT":"0.00002570","OBJECT_ID":"2021-005BC","SEMIMAJOR_AXIS":"6925.272","MEAN_ANOMALY":"300.4660","COUNTRY_CODE":"US","CENTER_NAME":"EARTH","MEAN_MOTION":"15.06425069","TIME_SYSTEM":"UTC","ECCENTRICITY":"0.00016850","CLASSIFICATION_TYPE":"U","ARG_OF_PERICENTER":"59.6495","MEAN_ELEMENT_THEORY":"SGP4","TLE_LINE2":"2 47399  53.0582  25.8270 0001685  59.6495 300.4660 15.06425069 66288","OBJECT_NAME":"STARLINK-2121","EPHEMERIS_TYPE":"0","RCS_SIZE":"LARGE","OBJECT_TYPE":"PAYLOAD","APOAPSIS":"548.304","RA_OF_ASC_NODE":"25.8270"},{"LAUNCH_DATE":"2021-01-20","PERIOD":"95.592","ELEMENT_SET_NO":"999","REV_AT_EPOCH":"6658","SITE":"AFETR","TLE_LINE1":"1 47400U 21005BD  22089.85309120  .00002506  00000-0  18711-3 0  9996","PERIAPSIS":"546.245","FILE":"3380787","DECAY_DATE":null,"BSTAR":"0.00018711000000","SEMIMAJOR_AXIS":"6925.353","OBJECT_ID":"2021-005BD","MEAN_MOTION_DOT":"0.00002506","GP_ID":"200096120","NORAD_CAT_ID":"47400","MEAN_MOTION_DDOT":"0.0000000000000","EPOCH":"2022-03-30T20:28:27.079680","INCLINATION":"53.0560","REF_FRAME":"TEME","TLE_LINE2":"2 47400  53.0560   5.2848 0001405  60.0460 300.0668 15.06398444 66581","OBJECT_NAME":"STARLINK-2122","MEAN_ELEMENT_THEORY":"SGP4","RCS_SIZE":"LARGE","EPHEMERIS_TYPE":"0","OBJECT_TYPE":"PAYLOAD","APOAPSIS":"548.191","RA_OF_ASC_NODE":"5.2848","MEAN_ANOMALY":"300.0668","COUNTRY_CODE":"US","CENTER_NAME":"EARTH","TIME_SYSTEM":"UTC","ECCENTRICITY":"0.00014050","ARG_OF_PERICENTER":"60.0460","CLASSIFICATION_TYPE":"U","MEAN_MOTION":"15.06398444"},{"TIME_SYSTEM":"UTC","ECCENTRICITY":"0.00019630","ARG_OF_PERICENTER":"57.9948","CLASSIFICATION_TYPE":"U","MEAN_MOTION":"15.06410119","CENTER_NAME":"EARTH","MEAN_ANOMALY":"302.1231","COUNTRY_CODE":"US","OBJECT_TYPE":"PAYLOAD","APOAPSIS":"548.542","RA_OF_ASC_NODE":"16.1199","RCS_SIZE":"LARGE","EPHEMERIS_TYPE":"0","TLE_LINE2":"2 47401  53.0578  16.1199 0001963  57.9948 302.1231 15.06410119 66422","OBJECT_NAME":"STARLINK-2123","MEAN_ELEMENT_THEORY":"SGP4","MEAN_MOTION_DDOT":"0.0000000000000","EPOCH":"2022-03-30T16:08:23.567136","INCLINATION":"53.0578","REF_FRAME":"TEME","NORAD_CAT_ID":"47401","GP_ID":"200096370","OBJECT_ID":"2021-005BE","SEMIMAJOR_AXIS":"6925.318","MEAN_MOTION_DOT":"0.00000021","FILE":"3380787","PERIAPSIS":"545.823","DECAY_DATE":null,"BSTAR":"0.00002033600000","ELEMENT_SET_NO":"999","SITE":"AFETR","REV_AT_EPOCH":"6642","TLE_LINE1":"1 47401U 21005BE  22089.67249499  .00000021  00000-0  20336-4 0  9996","LAUNCH_DATE":"2021-01-20","PERIOD":"95.591"},{"MEAN_MOTION_DOT":"-0.00002454","OBJECT_ID":"2021-005BF","SEMIMAJOR_AXIS":"6925.387","BSTAR":"-0.00014592000000","FILE":"3380779","PERIAPSIS":"546.015","DECAY_DATE":null,"TLE_LINE1":"1 47402U 21005BF  22089.49189466 -.00002454  00000-0 -14592-3 0  9994","ELEMENT_SET_NO":"999","REV_AT_EPOCH":"6639","SITE":"AFETR","PERIOD":"95.593","LAUNCH_DATE":"2021-01-20","INCLINATION":"53.0563","REF_FRAME":"TEME","MEAN_MOTION_DDOT":"0.0000000000000","EPOCH":"2022-03-30T11:48:19.698624","NORAD_CAT_ID":"47402","GP_ID":"200072490","OBJECT_TYPE":"PAYLOAD","RA_OF_ASC_NODE":"16.9152","APOAPSIS":"548.489","EPHEMERIS_TYPE":"0","RCS_SIZE":"LARGE","MEAN_ELEMENT_THEORY":"SGP4","TLE_LINE2":"2 47402  53.0563  16.9152 0001786  45.1605 314.9529 15.06387440 66393","OBJECT_NAME":"STARLINK-2124","MEAN_MOTION":"15.06387440","ECCENTRICITY":"0.00017860","TIME_SYSTEM":"UTC","CLASSIFICATION_TYPE":"U","ARG_OF_PERICENTER":"45.1605","CENTER_NAME":"EARTH","MEAN_ANOMALY":"314.9529","COUNTRY_CODE":"US"},{"ELEMENT_SET_NO":"999","REV_AT_EPOCH":"6700","SITE":"AFETR","TLE_LINE1":"1 47403U 21005BG  22089.49925752  .00000128  00000-0  27491-4 0  9998","LAUNCH_DATE":"2021-01-20","PERIOD":"95.592","SEMIMAJOR_AXIS":"6925.333","OBJECT_ID":"2021-005BG","MEAN_MOTION_DOT":"0.00000128","FILE":"3380074","PERIAPSIS":"546.077","DECAY_DATE":null,"BSTAR":"0.00002749100000","GP_ID":"200035802","MEAN_MOTION_DDOT":"0.0000000000000","EPOCH":"2022-03-30T11:58:55.849728","INCLINATION":"53.0565","REF_FRAME":"TEME","NORAD_CAT_ID":"47403","RCS_SIZE":"LARGE","EPHEMERIS_TYPE":"0","TLE_LINE2":"2 47403  53.0565  16.8941 0001619  65.0992 295.0165 15.06404971 67009","OBJECT_NAME":"STARLINK-2127","MEAN_ELEMENT_THEORY":"SGP4","OBJECT_TYPE":"PAYLOAD","RA_OF_ASC_NODE":"16.8941","APOAPSIS":"548.320","MEAN_ANOMALY":"295.0165","COUNTRY_CODE":"US","ECCENTRICITY":"0.00016190","TIME_SYSTEM":"UTC","ARG_OF_PERICENTER":"65.0992","CLASSIFICATION_TYPE":"U","MEAN_MOTION":"15.06404971","CENTER_NAME":"EARTH"},{"PERIOD":"95.592","LAUNCH_DATE":"2021-01-20","TLE_LINE1":"1 47404U 21005BH  22089.49556988  .00000246  00000-0  35387-4 0  9994","ELEMENT_SET_NO":"999","SITE":"AFETR","REV_AT_EPOCH":"6700","BSTAR":"0.00003538700000","PERIAPSIS":"545.965","FILE":"3380074","DECAY_DATE":null,"MEAN_MOTION_DOT":"0.00000246","OBJECT_ID":"2021-005BH","SEMIMAJOR_AXIS":"6925.327","GP_ID":"200036291","NORAD_CAT_ID":"47404","INCLINATION":"53.0562","REF_FRAME":"TEME","MEAN_MOTION_DDOT":"0.0000000000000","EPOCH":"2022-03-30T11:53:37.237632","MEAN_ELEMENT_THEORY":"SGP4","TLE_LINE2":"2 47404  53.0562  16.9075 0001772  46.3181 313.7954 15.06406900 67006","OBJECT_NAME":"STARLINK-2128","EPHEMERIS_TYPE":"0","RCS_SIZE":"LARGE","OBJECT_TYPE":"PAYLOAD","RA_OF_ASC_NODE":"16.9075","APOAPSIS":"548.420","MEAN_ANOMALY":"313.7954","COUNTRY_CODE":"US","CENTER_NAME":"EARTH","MEAN_MOTION":"15.06406900","TIME_SYSTEM":"UTC","ECCENTRICITY":"0.00017720","CLASSIFICATION_TYPE":"U","ARG_OF_PERICENTER":"46.3181"},{"CLASSIFICATION_TYPE":"U","ARG_OF_PERICENTER":"66.8709","ECCENTRICITY":"0.00015750","TIME_SYSTEM":"UTC","MEAN_MOTION":"15.06398071","CENTER_NAME":"EARTH","COUNTRY_CODE":"US","MEAN_ANOMALY":"293.2446","APOAPSIS":"548.310","RA_OF_ASC_NODE":"46.3781","OBJECT_TYPE":"PAYLOAD","RCS_SIZE":"LARGE","EPHEMERIS_TYPE":"0","OBJECT_NAME":"STARLINK-2130","TLE_LINE2":"2 47405  53.0555  46.3781 0001575  66.8709 293.2446 15.06398071 65986","MEAN_ELEMENT_THEORY":"SGP4","MEAN_MOTION_DDOT":"0.0000000000000","EPOCH":"2022-03-30T14:39:30.121056","REF_FRAME":"TEME","INCLINATION":"53.0555","NORAD_CAT_ID":"47405","GP_ID":"200096871","OBJECT_ID":"2021-005BJ","SEMIMAJOR_AXIS":"6925.354","MEAN_MOTION_DOT":"0.00001396","DECAY_DATE":null,"PERIAPSIS":"546.129","FILE":"3380787","BSTAR":"0.00011261000000","REV_AT_EPOCH":"6598","SITE":"AFETR","ELEMENT_SET_NO":"999","TLE_LINE1":"1 47405U 21005BJ  22089.61076529  .00001396  00000-0  11261-3 0  9998","LAUNCH_DATE":"2021-01-20","PERIOD":"95.592"},{"CENTER_NAME":"EARTH","CLASSIFICATION_TYPE":"U","ARG_OF_PERICENTER":"82.4671","ECCENTRICITY":"0.00013640","TIME_SYSTEM":"UTC","MEAN_MOTION":"15.06407392","COUNTRY_CODE":"US","MEAN_ANOMALY":"277.6473","APOAPSIS":"548.136","RA_OF_ASC_NODE":"16.8534","OBJECT_TYPE":"PAYLOAD","OBJECT_NAME":"STARLINK-2133","TLE_LINE2":"2 47406  53.0566  16.8534 0001364  82.4671 277.6473 15.06407392 66394","MEAN_ELEMENT_THEORY":"SGP4","RCS_SIZE":"LARGE","EPHEMERIS_TYPE":"0","NORAD_CAT_ID":"47406","MEAN_MOTION_DDOT":"0.0000000000000","EPOCH":"2022-03-30T12:09:33.264864","REF_FRAME":"TEME","INCLINATION":"53.0566","GP_ID":"200071990","DECAY_DATE":null,"FILE":"3380779","PERIAPSIS":"546.246","BSTAR":"0.00044062000000","SEMIMAJOR_AXIS":"6925.326","OBJECT_ID":"2021-005BK","MEAN_MOTION_DOT":"0.00006289","LAUNCH_DATE":"2021-01-20","PERIOD":"95.592","SITE":"AFETR","REV_AT_EPOCH":"6639","ELEMENT_SET_NO":"999","TLE_LINE1":"1 47406U 21005BK  22089.50663501  .00006289  00000-0  44062-3 0  9990"}];
